{
  "norad_id": 57446,
  "name": "STARLINK-30162",
  "history": [
    {
      "epoch": "2026-03-28T20:27:54.273600Z",
      "apogee_km": 486.3663726394834,
      "perigee_km": 484.70989328289306,
      "latitude_deg": -4.4530903998362565e-05,
      "longitude_deg": 7.2499057949711325,
      "height_km": 485.39389998808775,
      "semi_major_axis_km": 6863.675132961188,
      "eccentricity": 0.00012067,
      "inclination_deg": 42.9994,
      "raan_deg": 140.4933,
      "arg_perigee_deg": 264.5111,
      "mean_anomaly_deg": 95.5602,
      "mean_motion_rev_day": 15.26749135
    },
    {
      "epoch": "2026-03-29T04:18:56.962080Z",
      "apogee_km": 486.3548639248147,
      "perigee_km": 484.7693494311725,
      "latitude_deg": 4.910369646567074e-06,
      "longitude_deg": -112.67916215799805,
      "height_km": 485.33008157197355,
      "semi_major_axis_km": 6863.699106677994,
      "eccentricity": 0.0001155,
      "inclination_deg": 42.9995,
      "raan_deg": 138.6478,
      "arg_perigee_deg": 270.6178,
      "mean_anomaly_deg": 89.4541,
      "mean_motion_rev_day": 15.26741136
    },
    {
      "epoch": "2026-03-30T03:52:04.648224Z",
      "apogee_km": 486.06357349201426,
      "perigee_km": 485.0738271300297,
      "latitude_deg": -8.902263596338174e-06,
      "longitude_deg": -112.46275370106692,
      "height_km": 485.1394228819862,
      "semi_major_axis_km": 6863.705700311022,
      "eccentricity": 7.21e-05,
      "inclination_deg": 43.0022,
      "raan_deg": 133.1135,
      "arg_perigee_deg": 294.5589,
      "mean_anomaly_deg": 65.5187,
      "mean_motion_rev_day": 15.26738936
    }
  ]
}